<?xml version="1.0" encoding="UTF-8"?>
<gpx version="1.1" creator="TwoThousandSteps">
  <trk>
    <name>Approx 2000 Steps</name>
    <trkseg>
      <trkpt lat="37.4219999" lon="-122.0840575"></trkpt>
      <trkpt lat="37.4219999" lon="-122.0818240"></trkpt>
      <trkpt lat="37.4219999" lon="-122.0795905"></trkpt>
      <trkpt lat="37.4237999" lon="-122.0795905"></trkpt>
      <trkpt lat="37.4255999" lon="-122.0795905"></trkpt>
      <trkpt lat="37.4255999" lon="-122.0818240"></trkpt>
      <trkpt lat="37.4255999" lon="-122.0840575"></trkpt>
      <trkpt lat="37.4237999" lon="-122.0840575"></trkpt>
      <trkpt lat="37.4219999" lon="-122.0840575"></trkpt>
    </trkseg>
  </trk>
</gpx>